CTC1_L_00319001-01
1 10000U 26667BX  26075.70033565  .00000000  00000+0  00000-0 0  9996
2 10000  90.0000   0.0000 0000000   0.0000   0.0000 14.60983543    16
CTC1_L_00319001-02
1 10001U 25828DN  26075.70033565  .00000000  00000+0  00000-0 0  9995
2 10001  90.0000   0.0000 0000000   0.0000  90.0000 14.60983543    16
CTC1_L_00319001-03
1 10002U 25796PE  26075.70033565  .00000000  00000+0  00000-0 0  9990
2 10002  90.0000   0.0000 0000000   0.0000 180.0000 14.60983543    17
CTC1_L_00319001-04
1 10003U 22622CG  26075.70033565  .00000000  00000+0  00000-0 0  9996
2 10003  90.0000   0.0000 0000000   0.0000 270.0000 14.60983543    18
CTC1_L_00319002-01
1 10004U 23872PB  26075.70033565  .00000000  00000+0  00000-0 0  9995
2 10004  90.0000  12.0000 0000000   0.0000  12.0000 14.60983543    16
CTC1_L_00319002-02
1 10005U 22667WV  26075.70033565  .00000000  00000+0  00000-0 0  9997
2 10005  90.0000  12.0000 0000000   0.0000 102.0000 14.60983543    17
CTC1_L_00319002-03
1 10006U 22254ZS  26075.70033565  .00000000  00000+0  00000-0 0  9990
2 10006  90.0000  12.0000 0000000   0.0000 192.0000 14.60983543    17
CTC1_L_00319002-04
1 10007U 25999YM  26075.70033565  .00000000  00000+0  00000-0 0  9990
2 10007  90.0000  12.0000 0000000   0.0000 282.0000 14.60983543    18
CTC1_L_00319003-01
1 10008U 26707AV  26075.70033565  .00000000  00000+0  00000-0 0  9999
2 10008  90.0000  24.0000 0000000   0.0000  24.0000 14.60983543    16
CTC1_L_00319003-02
1 10009U 24946BX  26075.70033565  .00000000  00000+0  00000-0 0  9993
2 10009  90.0000  24.0000 0000000   0.0000 114.0000 14.60983543    17
CTC1_L_00319003-03
1 10010U 25880ZZ  26075.70033565  .00000000  00000+0  00000-0 0  9993
2 10010  90.0000  24.0000 0000000   0.0000 204.0000 14.60983543    19
CTC1_L_00319003-04
1 10011U 24656TX  26075.70033565  .00000000  00000+0  00000-0 0  9994
2 10011  90.0000  24.0000 0000000   0.0000 294.0000 14.60983543    19
CTC1_L_00319004-01
1 10012U 26718CU  26075.70033565  .00000000  00000+0  00000-0 0  9996
2 10012  90.0000  36.0000 0000000   0.0000  36.0000 14.60983543    17
CTC1_L_00319004-02
1 10013U 22540UP  26075.70033565  .00000000  00000+0  00000-0 0  9996
2 10013  90.0000  36.0000 0000000   0.0000 126.0000 14.60983543    18
CTC1_L_00319004-03
1 10014U 24236AV  26075.70033565  .00000000  00000+0  00000-0 0  9991
2 10014  90.0000  36.0000 0000000   0.0000 216.0000 14.60983543    19
CTC1_L_00319004-04
1 10015U 25196WV  26075.70033565  .00000000  00000+0  00000-0 0  9998
2 10015  90.0000  36.0000 0000000   0.0000 306.0000 14.60983543    10
CTC1_L_00319005-01
1 10016U 22266LP  26075.70033565  .00000000  00000+0  00000-0 0  9994
2 10016  90.0000  48.0000 0000000   0.0000  48.0000 14.60983543    17
CTC1_L_00319005-02
1 10017U 25716O   26075.70033565  .00000000  00000+0  00000-0 0  9998
2 10017  90.0000  48.0000 0000000   0.0000 138.0000 14.60983543    18
CTC1_L_00319005-03
1 10018U 25307HY  26075.70033565  .00000000  00000+0  00000-0 0  9995
2 10018  90.0000  48.0000 0000000   0.0000 228.0000 14.60983543    19
CTC1_L_00319005-04
1 10019U 23109ES  26075.70033565  .00000000  00000+0  00000-0 0  9994
2 10019  90.0000  48.0000 0000000   0.0000 318.0000 14.60983543    10
CTC1_L_00319006-01
1 10020U 25495JI  26075.70033565  .00000000  00000+0  00000-0 0  9996
2 10020  90.0000  60.0000 0000000   0.0000  60.0000 14.60983543    10
CTC1_L_00319006-02
1 10021U 25935IA  26075.70033565  .00000000  00000+0  00000-0 0  9996
2 10021  90.0000  60.0000 0000000   0.0000 150.0000 14.60983543    11
CTC1_L_00319006-03
1 10022U 26225ZM  26075.70033565  .00000000  00000+0  00000-0 0  9990
2 10022  90.0000  60.0000 0000000   0.0000 240.0000 14.60983543    12
CTC1_L_00319006-04
1 10023U 26049FO  26075.70033565  .00000000  00000+0  00000-0 0  9995
2 10023  90.0000  60.0000 0000000   0.0000 330.0000 14.60983543    13
CTC1_L_00319007-01
1 10024U 24980RI  26075.70033565  .00000000  00000+0  00000-0 0  9998
2 10024  90.0000  72.0000 0000000   0.0000  72.0000 14.60983543    10
CTC1_L_00319007-02
1 10025U 24826BM  26075.70033565  .00000000  00000+0  00000-0 0  9998
2 10025  90.0000  72.0000 0000000   0.0000 162.0000 14.60983543    11
CTC1_L_00319007-03
1 10026U 24428YO  26075.70033565  .00000000  00000+0  00000-0 0  9997
2 10026  90.0000  72.0000 0000000   0.0000 252.0000 14.60983543    12
CTC1_L_00319007-04
1 10027U 22946RI  26075.70033565  .00000000  00000+0  00000-0 0  9991
2 10027  90.0000  72.0000 0000000   0.0000 342.0000 14.60983543    13
CTC1_L_00319008-01
1 10028U 24573QT  26075.70033565  .00000000  00000+0  00000-0 0  9990
2 10028  90.0000  84.0000 0000000   0.0000  84.0000 14.60983543    10
CTC1_L_00319008-02
1 10029U 26880PR  26075.70033565  .00000000  00000+0  00000-0 0  9994
2 10029  90.0000  84.0000 0000000   0.0000 174.0000 14.60983543    11
CTC1_L_00319008-03
1 10030U 23585LL  26075.70033565  .00000000  00000+0  00000-0 0  9995
2 10030  90.0000  84.0000 0000000   0.0000 264.0000 14.60983543    13
CTC1_L_00319008-04
1 10031U 22543SD  26075.70033565  .00000000  00000+0  00000-0 0  9999
2 10031  90.0000  84.0000 0000000   0.0000 354.0000 14.60983543    14
CTC1_L_00319009-01
1 10032U 24426OL  26075.70033565  .00000000  00000+0  00000-0 0  9992
2 10032  90.0000  96.0000 0000000   0.0000  96.0000 14.60983543    11
CTC1_L_00319009-02
1 10033U 24332VX  26075.70033565  .00000000  00000+0  00000-0 0  9999
2 10033  90.0000  96.0000 0000000   0.0000 186.0000 14.60983543    12
CTC1_L_00319009-03
1 10034U 23963WJ  26075.70033565  .00000000  00000+0  00000-0 0  9999
2 10034  90.0000  96.0000 0000000   0.0000 276.0000 14.60983543    13
CTC1_L_00319009-04
1 10035U 25535JL  26075.70033565  .00000000  00000+0  00000-0 0  9997
2 10035  90.0000  96.0000 0000000   0.0000   6.0000 14.60983543    15
CTC1_L_00319010-01
1 10036U 22861RI  26075.70033565  .00000000  00000+0  00000-0 0  9997
2 10036  90.0000 108.0000 0000000   0.0000 108.0000 14.60983543    13
CTC1_L_00319010-02
1 10037U 25840MN  26075.70033565  .00000000  00000+0  00000-0 0  9998
2 10037  90.0000 108.0000 0000000   0.0000 198.0000 14.60983543    13
CTC1_L_00319010-03
1 10038U 25407QT  26075.70033565  .00000000  00000+0  00000-0 0  9998
2 10038  90.0000 108.0000 0000000   0.0000 288.0000 14.60983543    14
CTC1_L_00319010-04
1 10039U 23419UJ  26075.70033565  .00000000  00000+0  00000-0 0  9990
2 10039  90.0000 108.0000 0000000   0.0000  18.0000 14.60983543    16
CTC1_L_00319011-01
1 10040U 24504VC  26075.70033565  .00000000  00000+0  00000-0 0  9998
2 10040  90.0000 120.0000 0000000   0.0000 120.0000 14.60983543    16
CTC1_L_00319011-02
1 10041U 22922GE  26075.70033565  .00000000  00000+0  00000-0 0  9991
2 10041  90.0000 120.0000 0000000   0.0000 210.0000 14.60983543    17
CTC1_L_00319011-03
1 10042U 25009SY  26075.70033565  .00000000  00000+0  00000-0 0  9991
2 10042  90.0000 120.0000 0000000   0.0000 300.0000 14.60983543    18
CTC1_L_00319011-04
1 10043U 24632UT  26075.70033565  .00000000  00000+0  00000-0 0  9993
2 10043  90.0000 120.0000 0000000   0.0000  30.0000 14.60983543    19
CTC1_L_00319012-01
1 10044U 23272OF  26075.70033565  .00000000  00000+0  00000-0 0  9993
2 10044  90.0000 132.0000 0000000   0.0000 132.0000 14.60983543    16
CTC1_L_00319012-02
1 10045U 26170TS  26075.70033565  .00000000  00000+0  00000-0 0  9994
2 10045  90.0000 132.0000 0000000   0.0000 222.0000 14.60983543    17
CTC1_L_00319012-03
1 10046U 25135SP  26075.70033565  .00000000  00000+0  00000-0 0  9995
2 10046  90.0000 132.0000 0000000   0.0000 312.0000 14.60983543    18
CTC1_L_00319012-04
1 10047U 24768UJ  26075.70033565  .00000000  00000+0  00000-0 0  9997
2 10047  90.0000 132.0000 0000000   0.0000  42.0000 14.60983543    19
CTC1_L_00319013-01
1 10048U 23781CL  26075.70033565  .00000000  00000+0  00000-0 0  9992
2 10048  90.0000 144.0000 0000000   0.0000 144.0000 14.60983543    16
CTC1_L_00319013-02
1 10049U 24147LQ  26075.70033565  .00000000  00000+0  00000-0 0  9990
2 10049  90.0000 144.0000 0000000   0.0000 234.0000 14.60983543    17
CTC1_L_00319013-03
1 10050U 22787DN  26075.70033565  .00000000  00000+0  00000-0 0  9990
2 10050  90.0000 144.0000 0000000   0.0000 324.0000 14.60983543    19
CTC1_L_00319013-04
1 10051U 24774UL  26075.70033565  .00000000  00000+0  00000-0 0  9999
2 10051  90.0000 144.0000 0000000   0.0000  54.0000 14.60983543    10
CTC1_L_00319014-01
1 10052U 23653LM  26075.70033565  .00000000  00000+0  00000-0 0  9995
2 10052  90.0000 156.0000 0000000   0.0000 156.0000 14.60983543    17
CTC1_L_00319014-02
1 10053U 26011VY  26075.70033565  .00000000  00000+0  00000-0 0  9997
2 10053  90.0000 156.0000 0000000   0.0000 246.0000 14.60983543    18
CTC1_L_00319014-03
1 10054U 25668DG  26075.70033565  .00000000  00000+0  00000-0 0  9995
2 10054  90.0000 156.0000 0000000   0.0000 336.0000 14.60983543    19
CTC1_L_00319014-04
1 10055U 22942TH  26075.70033565  .00000000  00000+0  00000-0 0  9998
2 10055  90.0000 156.0000 0000000   0.0000  66.0000 14.60983543    10
CTC1_L_00319015-01
1 10056U 22898XV  26075.70033565  .00000000  00000+0  00000-0 0  9999
2 10056  90.0000 168.0000 0000000   0.0000 168.0000 14.60983543    17
CTC1_L_00319015-02
1 10057U 23231NY  26075.70033565  .00000000  00000+0  00000-0 0  9992
2 10057  90.0000 168.0000 0000000   0.0000 258.0000 14.60983543    18
CTC1_L_00319015-03
1 10058U 26677VE  26075.70033565  .00000000  00000+0  00000-0 0  9990
2 10058  90.0000 168.0000 0000000   0.0000 348.0000 14.60983543    19
CTC1_L_00319015-04
1 10059U 24459PL  26075.70033565  .00000000  00000+0  00000-0 0  9997
2 10059  90.0000 168.0000 0000000   0.0000  78.0000 14.60983543    10
CTC1_L_00319016-01
1 10060U 22246YS  26075.70033565  .00000000  00000+0  00000-0 0  9991
2 10060  90.0000 180.0000 0000000   0.0000 180.0000 14.60983543    10
CTC1_L_00319016-02
1 10061U 23667AM  26075.70033565  .00000000  00000+0  00000-0 0  9990
2 10061  90.0000 180.0000 0000000   0.0000 270.0000 14.60983543    11
